{"type": "FeatureCollection", "features": [{"type": "Feature", "properties": {"norad_id": 26766, "name": "INTELSAT 10 (IS-10)", "group": "intelsat", "lat": 8.0313996979325, "lon": 173.17687403851446, "alt_km": 36139.112518700815, "timestamp": "2025-12-20T22:39:10.312882+00:00", "meta": {"OBJECT_NAME": "INTELSAT 10 (IS-10)", "OBJECT_ID": "2001-019A", "EPOCH": "2025-12-20T12:07:39.749952", "MEAN_MOTION": 0.99074466, "ECCENTRICITY": 0.00077669, "INCLINATION": 8.6468, "RA_OF_ASC_NODE": 61.0789, "ARG_OF_PERICENTER": 228.9556, "MEAN_ANOMALY": 86.574, "EPHEMERIS_TYPE": 0, "CLASSIFICATION_TYPE": "U", "NORAD_CAT_ID": 26766, "ELEMENT_SET_NO": 999, "REV_AT_EPOCH": 4380, "BSTAR": 0, "MEAN_MOTION_DOT": -1.08e-06, "MEAN_MOTION_DDOT": 0}, "tle": {"line1": "1 26766U 01019A   25354.50532118 -.00000108  00000+0  00000+0 0  9990", "line2": "2 26766   8.6468  61.0789 0007766 228.9556  86.5740  0.99074466 43805"}}, "geometry": {"type": "Point", "coordinates": [173.17687403851446, 8.0313996979325]}}, {"type": "Feature", "properties": {"norad_id": 26900, "name": "INTELSAT 902 (IS-902)", "group": "intelsat", "lat": -4.6074472143050995, "lon": 19.598006453464563, "alt_km": 35795.782608728325, "timestamp": "2025-12-20T22:39:10.312905+00:00", "meta": {"OBJECT_NAME": "INTELSAT 902 (IS-902)", "OBJECT_ID": "2001-039A", "EPOCH": "2025-12-15T13:09:02.081664", "MEAN_MOTION": 1.0027087, "ECCENTRICITY": 0.00045028, "INCLINATION": 5.6536, "RA_OF_ASC_NODE": 74.0372, "ARG_OF_PERICENTER": 189.6359, "MEAN_ANOMALY": 327.9329, "EPHEMERIS_TYPE": 0, "CLASSIFICATION_TYPE": "U", "NORAD_CAT_ID": 26900, "ELEMENT_SET_NO": 999, "REV_AT_EPOCH": 8885, "BSTAR": 0, "MEAN_MOTION_DOT": -2.65e-06, "MEAN_MOTION_DDOT": 0}, "tle": {"line1": "1 26900U 01039A   25349.54794076 -.00000265  00000+0  00000+0 0  9997", "line2": "2 26900   5.6536  74.0372 0004502 189.6359 327.9329  1.00270870 88858"}}, "geometry": {"type": "Point", "coordinates": [19.598006453464563, -4.6074472143050995]}}, {"type": "Feature", "properties": {"norad_id": 27380, "name": "INTELSAT 904 (IS-904)", "group": "intelsat", "lat": -3.5346178347333894, "lon": 38.24367930433788, "alt_km": 35785.33143479126, "timestamp": "2025-12-20T22:39:10.312919+00:00", "meta": {"OBJECT_NAME": "INTELSAT 904 (IS-904)", "OBJECT_ID": "2002-007A", "EPOCH": "2025-12-20T11:22:11.801280", "MEAN_MOTION": 1.00270947, "ECCENTRICITY": 0.00018054, "INCLINATION": 6.4727, "RA_OF_ASC_NODE": 71.3436, "ARG_OF_PERICENTER": 248.3759, "MEAN_ANOMALY": 268.6336, "EPHEMERIS_TYPE": 0, "CLASSIFICATION_TYPE": "U", "NORAD_CAT_ID": 27380, "ELEMENT_SET_NO": 999, "REV_AT_EPOCH": 4997, "BSTAR": 0, "MEAN_MOTION_DOT": -2.07e-06, "MEAN_MOTION_DDOT": 0}, "tle": {"line1": "1 27380U 02007A   25354.47374770 -.00000207  00000+0  00000+0 0  9995", "line2": "2 27380   6.4727  71.3436 0001805 248.3759 268.6336  1.00270947 49977"}}, "geometry": {"type": "Point", "coordinates": [38.24367930433788, -3.5346178347333894]}}, {"type": "Feature", "properties": {"norad_id": 27426, "name": "DIRECTV 5 (TEMPO 1)", "group": "intelsat", "lat": -3.919889100784489, "lon": -40.60560889274302, "alt_km": 35777.20955474772, "timestamp": "2025-12-20T22:39:10.312930+00:00", "meta": {"OBJECT_NAME": "DIRECTV 5 (TEMPO 1)", "OBJECT_ID": "2002-023A", "EPOCH": "2025-12-20T10:12:17.667072", "MEAN_MOTION": 1.00271343, "ECCENTRICITY": 0.00031123, "INCLINATION": 4.4204, "RA_OF_ASC_NODE": 77.5629, "ARG_OF_PERICENTER": 198.0505, "MEAN_ANOMALY": 216.5994, "EPHEMERIS_TYPE": 0, "CLASSIFICATION_TYPE": "U", "NORAD_CAT_ID": 27426, "ELEMENT_SET_NO": 999, "REV_AT_EPOCH": 8633, "BSTAR": 0, "MEAN_MOTION_DOT": -3.7e-07, "MEAN_MOTION_DDOT": 0}, "tle": {"line1": "1 27426U 02023A   25354.42520448 -.00000037  00000+0  00000+0 0  9995", "line2": "2 27426   4.4204  77.5629 0003112 198.0505 216.5994  1.00271343 86335"}}, "geometry": {"type": "Point", "coordinates": [-40.60560889274302, -3.919889100784489]}}, {"type": "Feature", "properties": {"norad_id": 27438, "name": "INTELSAT 905 (IS-905)", "group": "intelsat", "lat": -4.107192491879073, "lon": -67.8068735205614, "alt_km": 35775.655547348804, "timestamp": "2025-12-20T22:39:10.312942+00:00", "meta": {"OBJECT_NAME": "INTELSAT 905 (IS-905)", "OBJECT_ID": "2002-027A", "EPOCH": "2025-12-20T10:52:51.499776", "MEAN_MOTION": 1.00272487, "ECCENTRICITY": 0.00026639, "INCLINATION": 6.3037, "RA_OF_ASC_NODE": 71.9674, "ARG_OF_PERICENTER": 202.299, "MEAN_ANOMALY": 201.0262, "EPHEMERIS_TYPE": 0, "CLASSIFICATION_TYPE": "U", "NORAD_CAT_ID": 27438, "ELEMENT_SET_NO": 999, "REV_AT_EPOCH": 4957, "BSTAR": 0, "MEAN_MOTION_DOT": 1.12e-06, "MEAN_MOTION_DDOT": 0}, "tle": {"line1": "1 27438U 02027A   25354.45337384  .00000112  00000+0  00000+0 0  9993", "line2": "2 27438   6.3037  71.9674 0002663 202.2990 201.0262  1.00272487 49579"}}, "geometry": {"type": "Point", "coordinates": [-67.8068735205614, -4.107192491879073]}}, {"type": "Feature", "properties": {"norad_id": 27445, "name": "GALAXY 3C (G-3C)", "group": "intelsat", "lat": -3.174016011481689, "lon": -25.323004653896174, "alt_km": 35791.1672189477, "timestamp": "2025-12-20T22:39:10.312953+00:00", "meta": {"OBJECT_NAME": "GALAXY 3C (G-3C)", "OBJECT_ID": "2002-030A", "EPOCH": "2025-12-20T11:56:05.483616", "MEAN_MOTION": 1.00271782, "ECCENTRICITY": 0.00011093, "INCLINATION": 3.2821, "RA_OF_ASC_NODE": 80.4263, "ARG_OF_PERICENTER": 77.7838, "MEAN_ANOMALY": 15.2839, "EPHEMERIS_TYPE": 0, "CLASSIFICATION_TYPE": "U", "NORAD_CAT_ID": 27445, "ELEMENT_SET_NO": 999, "REV_AT_EPOCH": 4470, "BSTAR": 0, "MEAN_MOTION_DOT": -1.31e-06, "MEAN_MOTION_DDOT": 0}, "tle": {"line1": "1 27445U 02030A   25354.49728569 -.00000131  00000+0  00000+0 0  9990", "line2": "2 27445   3.2821  80.4263 0001109  77.7838  15.2839  1.00271782 44705"}}, "geometry": {"type": "Point", "coordinates": [-25.323004653896174, -3.174016011481689]}}, {"type": "Feature", "properties": {"norad_id": 27513, "name": "INTELSAT 906 (IS-906)", "group": "intelsat", "lat": 4.582488437988403, "lon": 133.53491901284062, "alt_km": 35805.633561287264, "timestamp": "2025-12-20T22:39:10.312964+00:00", "meta": {"OBJECT_NAME": "INTELSAT 906 (IS-906)", "OBJECT_ID": "2002-041A", "EPOCH": "2025-12-19T20:34:46.617600", "MEAN_MOTION": 1.00272721, "ECCENTRICITY": 0.00063182, "INCLINATION": 5.3475, "RA_OF_ASC_NODE": 75.1475, "ARG_OF_PERICENTER": 198.3862, "MEAN_ANOMALY": 187.9892, "EPHEMERIS_TYPE": 0, "CLASSIFICATION_TYPE": "U", "NORAD_CAT_ID": 27513, "ELEMENT_SET_NO": 999, "REV_AT_EPOCH": 8523, "BSTAR": 0, "MEAN_MOTION_DOT": 3.3e-07, "MEAN_MOTION_DDOT": 0}, "tle": {"line1": "1 27513U 02041A   25353.85748400  .00000033  00000+0  00000+0 0  9993", "line2": "2 27513   5.3475  75.1475 0006318 198.3862 187.9892  1.00272721 85232"}}, "geometry": {"type": "Point", "coordinates": [133.53491901284062, 4.582488437988403]}}, {"type": "Feature", "properties": {"norad_id": 27954, "name": "GALAXY 13 (HORIZONS-1)", "group": "intelsat", "lat": -0.24522908568556948, "lon": -80.45856912749133, "alt_km": 35776.903498202366, "timestamp": "2025-12-20T22:39:10.312975+00:00", "meta": {"OBJECT_NAME": "GALAXY 13 (HORIZONS-1)", "OBJECT_ID": "2003-044A", "EPOCH": "2025-12-20T12:30:57.714048", "MEAN_MOTION": 1.00269807, "ECCENTRICITY": 0.00023767, "INCLINATION": 0.9566, "RA_OF_ASC_NODE": 86.372, "ARG_OF_PERICENTER": 177.8371, "MEAN_ANOMALY": 222.8683, "EPHEMERIS_TYPE": 0, "CLASSIFICATION_TYPE": "U", "NORAD_CAT_ID": 27954, "ELEMENT_SET_NO": 999, "REV_AT_EPOCH": 4478, "BSTAR": 0, "MEAN_MOTION_DOT": 1.56e-06, "MEAN_MOTION_DDOT": 0}, "tle": {"line1": "1 27954U 03044A   25354.52150132  .00000156  00000+0  00000+0 0  9996", "line2": "2 27954   0.9566  86.3720 0002376 177.8371 222.8683  1.00269807 44780"}}, "geometry": {"type": "Point", "coordinates": [-80.45856912749133, -0.24522908568556948]}}, {"type": "Feature", "properties": {"norad_id": 28358, "name": "INTELSAT 10-02", "group": "intelsat", "lat": 0.01606701964704193, "lon": 68.59550799235876, "alt_km": 35788.68240121635, "timestamp": "2025-12-20T22:39:10.312986+00:00", "meta": {"OBJECT_NAME": "INTELSAT 10-02", "OBJECT_ID": "2004-022A", "EPOCH": "2025-12-20T10:23:38.656320", "MEAN_MOTION": 1.00270532, "ECCENTRICITY": 8.903e-05, "INCLINATION": 0.0218, "RA_OF_ASC_NODE": 71.4141, "ARG_OF_PERICENTER": 230.3052, "MEAN_ANOMALY": 302.4939, "EPHEMERIS_TYPE": 0, "CLASSIFICATION_TYPE": "U", "NORAD_CAT_ID": 28358, "ELEMENT_SET_NO": 999, "REV_AT_EPOCH": 7876, "BSTAR": 0, "MEAN_MOTION_DOT": 1.3e-07, "MEAN_MOTION_DDOT": 0}, "tle": {"line1": "1 28358U 04022A   25354.43308630  .00000013  00000+0  00000+0 0  9992", "line2": "2 28358   0.0218  71.4141 0000890 230.3052 302.4939  1.00270532 78767"}}, "geometry": {"type": "Point", "coordinates": [68.59550799235876, 0.01606701964704193]}}, {"type": "Feature", "properties": {"norad_id": 28626, "name": "XM-3 (RHYTHM)", "group": "intelsat", "lat": 0.18694508424064815, "lon": 144.8759575408441, "alt_km": 36167.49093977923, "timestamp": "2025-12-20T22:39:10.312997+00:00", "meta": {"OBJECT_NAME": "XM-3 (RHYTHM)", "OBJECT_ID": "2005-008A", "EPOCH": "2025-12-20T13:35:51.499392", "MEAN_MOTION": 0.98949934, "ECCENTRICITY": 0.00019499, "INCLINATION": 0.1939, "RA_OF_ASC_NODE": 81.9855, "ARG_OF_PERICENTER": 278.0119, "MEAN_ANOMALY": 10.4701, "EPHEMERIS_TYPE": 0, "CLASSIFICATION_TYPE": "U", "NORAD_CAT_ID": 28626, "ELEMENT_SET_NO": 999, "REV_AT_EPOCH": 4082, "BSTAR": 0, "MEAN_MOTION_DOT": 7.4e-07, "MEAN_MOTION_DDOT": 0}, "tle": {"line1": "1 28626U 05008A   25354.56656828  .00000074  00000+0  00000+0 0  9991", "line2": "2 28626   0.1939  81.9855 0001949 278.0119  10.4701  0.98949934 40827"}}, "geometry": {"type": "Point", "coordinates": [144.8759575408441, 0.18694508424064815]}}]}